NORAD_CAT_ID,OBJECT_NAME,OBJECT_TYPE,EPOCH,MEAN_MOTION,ECCENTRICITY,INCLINATION,RA_OF_ASC_NODE,ARG_OF_PERICENTER,MEAN_ANOMALY,BSTAR,MEAN_MOTION_DOT,MEAN_MOTION_DDOT,TLE_LINE0,TLE_LINE1,TLE_LINE2,SEMIMAJOR_AXIS,PERIOD,APOGEE,PERIGEE,DECAYED
54055.0,STARLINK-5158,PAYLOAD,2023-05-07 20:20:13,15.08872015,0.0001318,53.2151,318.8562,81.3468,278.7674,0.0018259,0.00028916,0.0,0 STARLINK-5158,1 54055U 22136E   23127.84738195  .00028916  00000-0  18259-2 0  9996,2 54055  53.2151 318.8562 0001318  81.3468 278.7674 15.08872015 30791,6917.783,95.436,540.559,538.736,0.0
54055.0,STARLINK-5158,PAYLOAD,2023-05-08 05:52:31,15.08858713,5.76e-05,53.2152,317.0723,104.9065,255.1991,0.00045762,7.007e-05,0.0,0 STARLINK-5158,1 54055U 22136E   23128.24481451  .00007007  00000-0  45762-3 0  9999,2 54055  53.2152 317.0723 0000576 104.9065 255.1991 15.08858713 30859,6917.823,95.436,540.087,539.29,0.0
54055.0,STARLINK-5158,PAYLOAD,2023-05-08 20:10:59,15.08874565,0.0001166,53.2152,314.3952,86.0155,274.097,0.0020073,0.00031833,0.0,0 STARLINK-5158,1 54055U 22136E   23128.84096935  .00031833  00000-0  20073-2 0  9995,2 54055  53.2152 314.3952 0001166  86.0155 274.0970 15.08874565 30466,6917.775,95.435,540.446,538.833,0.0
54055.0,STARLINK-5158,PAYLOAD,2023-05-09 05:43:18,15.08851667,4.95e-05,53.2154,312.6103,73.6135,286.4911,0.00049606,7.618e-05,0.0,0 STARLINK-5158,1 54055U 22136E   23129.23840687  .00007618  00000-0  49606-3 0  9998,2 54055  53.2154 312.6103 0000495  73.6135 286.4911 15.08851667 30528,6917.845,95.437,540.052,539.367,0.0
54055.0,STARLINK-5158,PAYLOAD,2023-05-10 13:31:01,15.08861824,0.0002018,53.2151,306.6631,84.1929,275.9293,0.0014929,0.00023566,0.0,0 STARLINK-5158,1 54055U 22136E   23130.56321019  .00023566  00000-0  14929-2 0  9998,2 54055  53.2151 306.6631 0002018  84.1929 275.9293 15.08861824 30729,6917.814,95.436,541.075,538.283,0.0
54055.0,STARLINK-5158,PAYLOAD,2023-05-10 18:17:10,15.08851901,0.0001212,53.2155,305.7714,75.1725,284.9401,0.0016529,0.00026124,0.0,0 STARLINK-5158,1 54055U 22136E   23130.76192936  .00026124  00000-0  16529-2 0  9995,2 54055  53.2155 305.7714 0001212  75.1725 284.9401 15.08851901 31237,6917.844,95.437,540.547,538.871,0.0
54055.0,STARLINK-5158,PAYLOAD,2023-05-10 21:27:56,15.08856126,0.0001313,53.2166,305.1782,74.6891,285.4247,0.0012409,0.00019525,0.0,0 STARLINK-5158,1 54055U 22136E   23130.89440807  .00019525  00000-0  12409-2 0  9992,2 54055  53.2166 305.1782 0001313  74.6891 285.4247 15.08856126 30774,6917.831,95.437,540.604,538.788,0.0
54055.0,STARLINK-5158,PAYLOAD,2023-05-11 18:07:57,15.08849805,0.0001014,53.2158,301.3103,76.6723,283.4382,0.00067732,0.00010511,0.0,0 STARLINK-5158,1 54055U 22136E   23131.75552942  .00010511  00000-0  67732-3 0  9998,2 54055  53.2158 301.3103 0001014  76.6723 283.4382 15.08849805 31386,6917.85,95.437,540.417,539.014,0.0
54055.0,STARLINK-5158,PAYLOAD,2023-05-12 03:40:16,15.08839612,0.0001114,53.2159,299.5269,80.7949,279.3169,0.00030989,4.647e-05,0.0,0 STARLINK-5158,1 54055U 22136E   23132.15297123  .00004647  00000-0  30989-3 0  9997,2 54055  53.2159 299.5269 0001114  80.7949 279.3169 15.08839612 31444,6917.882,95.438,540.517,538.976,0.0
54055.0,STARLINK-5158,PAYLOAD,2023-05-12 17:58:44,15.08844764,0.0001171,53.216,296.8516,80.0767,280.0357,0.00027438,4.082e-05,0.0,0 STARLINK-5158,1 54055U 22136E   23132.74913052  .00004082  00000-0  27438-3 0  9996,2 54055  53.2160 296.8516 0001171  80.0767 280.0357 15.08844764 31054,6917.866,95.437,540.541,538.921,0.0
54055.0,STARLINK-5158,PAYLOAD,2023-05-13 03:31:03,15.08844113,0.0001242,53.2163,295.0685,89.7333,270.3802,0.00026893,3.995e-05,0.0,0 STARLINK-5158,1 54055U 22136E   23133.14657094  .00003995  00000-0  26893-3 0  9998,2 54055  53.2163 295.0685 0001242  89.7333 270.3802 15.08844113 31111,6917.868,95.437,540.592,538.874,0.0
54055.0,STARLINK-5158,PAYLOAD,2023-05-13 14:38:45,15.08842527,0.0001264,53.2165,292.9887,103.5823,256.531,0.00013263,1.824e-05,0.0,0 STARLINK-5158,1 54055U 22136E   23133.61025144  .00001824  00000-0  13263-3 0  9991,2 54055  53.2165 292.9887 0001264 103.5823 256.5310 15.08842527 31663,6917.873,95.437,540.612,538.863,0.0
54055.0,STARLINK-5158,PAYLOAD,2023-05-13 17:49:31,15.08842565,0.0001293,53.2167,292.3943,104.9277,255.1858,0.00011332,1.516e-05,0.0,0 STARLINK-5158,1 54055U 22136E   23133.74273129  .00001516  00000-0  11332-3 0  9996,2 54055  53.2167 292.3943 0001293 104.9277 255.1858 15.08842565 31206,6917.873,95.437,540.632,538.843,0.0
54055.0,STARLINK-5158,PAYLOAD,2023-05-14 03:21:51,15.08836976,0.0001229,53.2163,290.6096,101.3749,258.7381,5.3154e-06,-2.03e-06,0.0,0 STARLINK-5158,1 54055U 22136E   23134.14017364 -.00000203  00000-0  53154-5 0  9991,2 54055  53.2163 290.6096 0001229 101.3749 258.7381 15.08836976 31744,6917.89,95.438,540.605,538.904,0.0
54055.0,STARLINK-5158,PAYLOAD,2023-05-14 19:15:42,15.08839565,0.0001312,53.2168,287.636,98.8093,261.3047,3.2113e-05,2.23e-06,0.0,0 STARLINK-5158,1 54055U 22136E   23134.80257489  .00000223  00000-0  32113-4 0  9990,2 54055  53.2168 287.6360 0001312  98.8093 261.3047 15.08839565 31368,6917.882,95.438,540.654,538.839,0.0
54055.0,STARLINK-5158,PAYLOAD,2023-05-15 03:12:38,15.08835307,0.0001384,53.2168,286.1478,89.8441,270.2709,1.1246e-06,-2.7e-06,0.0,0 STARLINK-5158,1 54055U 22136E   23135.13377860 -.00000270  00000-0  11246-5 0  9991,2 54055  53.2168 286.1478 0001384  89.8441 270.2709 15.08835307 31418,6917.895,95.438,540.717,538.802,0.0
54055.0,STARLINK-5158,PAYLOAD,2023-05-15 14:20:20,15.08838367,0.0001346,53.2166,284.066,86.6758,273.4388,9.0668e-05,1.155e-05,0.0,0 STARLINK-5158,1 54055U 22136E   23135.59745842  .00001155  00000-0  90668-4 0  9996,2 54055  53.2166 284.0660 0001346  86.6758 273.4388 15.08838367 31967,6917.885,95.438,540.682,538.819,0.0
54055.0,STARLINK-5158,PAYLOAD,2023-05-15 15:55:43,15.0883926,0.0001353,53.2166,283.7687,92.223,267.8917,7.0336e-05,8.32e-06,0.0,0 STARLINK-5158,1 54055U 22136E   23135.66369810  .00000832  00000-0  70336-4 0  9992,2 54055  53.2166 283.7687 0001353  92.2230 267.8917 15.08839260 31494,6917.883,95.438,540.684,538.812,0.0
54055.0,STARLINK-5158,PAYLOAD,2023-05-16 09:24:58,15.08833285,0.000131,53.2162,280.4977,89.9426,270.1717,0.00031662,4.754e-05,0.0,0 STARLINK-5158,1 54055U 22136E   23136.39234346  .00004754  00000-0  31662-3 0  9993,2 54055  53.2162 280.4977 0001310  89.9426 270.1717 15.08833285 31608,6917.901,95.438,540.672,538.86,0.0
54055.0,STARLINK-5158,PAYLOAD,2023-05-17 15:37:17,15.08844126,0.0001213,53.2169,274.8465,92.0085,268.1046,0.00010996,1.463e-05,0.0,0 STARLINK-5158,1 54055U 22136E   23137.65089630  .00001463  00000-0  10996-3 0  9998,2 54055  53.2169 274.8465 0001213  92.0085 268.1046 15.08844126 32274,6917.868,95.437,540.572,538.894,0.0
54055.0,STARLINK-5158,PAYLOAD,2023-05-18 12:17:18,15.08840337,0.0001292,53.2173,270.9816,98.5479,261.566,5.7227e-05,6.23e-06,0.0,0 STARLINK-5158,1 54055U 22136E   23138.51201841  .00000623  00000-0  57227-4 0  9990,2 54055  53.2173 270.9816 0001292  98.5479 261.5660 15.08840337 32405,6917.879,95.438,540.638,538.851,0.0
54055.0,STARLINK-5158,PAYLOAD,2023-05-18 18:38:50,15.08842714,0.0001208,53.216,269.791,91.5133,268.5997,7.0897e-05,8.41e-06,0.0,0 STARLINK-5158,1 54055U 22136E   23138.77697621  .00000841  00000-0  70897-4 0  9993,2 54055  53.2160 269.7910 0001208  91.5133 268.5997 15.08842714 31960,6917.872,95.437,540.573,538.901,0.0
54055.0,STARLINK-5158,PAYLOAD,2023-05-19 12:08:05,15.08838722,0.0001249,53.2159,266.5184,105.661,254.452,7.851e-06,-1.63e-06,0.0,0 STARLINK-5158,1 54055U 22136E   23139.50561991 -.00000163  00000-0  78510-5 0  9994,2 54055  53.2159 266.5184 0001249 105.6610 254.4520 15.08838722 32071,6917.884,95.438,540.613,538.885,0.0
54055.0,STARLINK-5158,PAYLOAD,2023-05-20 00:51:10,15.08836423,0.0001225,53.2158,264.1388,110.395,249.7174,2.5898e-05,1.24e-06,0.0,0 STARLINK-5158,1 54055U 22136E   23140.03554102  .00000124  00000-0  25898-4 0  9996,2 54055  53.2158 264.1388 0001225 110.3950 249.7174 15.08836423 32634,6917.891,95.438,540.604,538.909,0.0
54055.0,STARLINK-5158,PAYLOAD,2023-05-20 13:34:14,15.08853933,0.0001399,53.2151,261.7587,122.4573,237.6555,0.0001931,2.788e-05,0.0,0 STARLINK-5158,1 54055U 22136E   23140.56544497  .00002788  00000-0  19310-3 0  9999,2 54055  53.2151 261.7587 0001399 122.4573 237.6555 15.08853933 32711,6917.838,95.437,540.671,538.735,0.0
54055.0,STARLINK-5158,PAYLOAD,2023-05-21 08:38:52,15.0885871,0.0001655,53.2185,258.2001,110.8906,249.2263,-1.5044e-05,-5.28e-06,0.0,0 STARLINK-5158,1 54055U 22136E   23141.36032734 -.00000528  00000-0 -15044-4 0  9997,2 54055  53.2185 258.2001 0001655 110.8906 249.2263 15.08858710 32832,6917.823,95.436,540.833,538.543,0.0
54055.0,STARLINK-5158,PAYLOAD,2023-05-21 11:49:38,15.08842145,0.000103,53.2161,257.5987,92.2377,267.8733,8.9948e-05,1.144e-05,0.0,0 STARLINK-5158,1 54055U 22136E   23141.49281205  .00001144  00000-0  89948-4 0  9997,2 54055  53.2161 257.5987 0001030  92.2377 267.8733 15.08842145 32375,6917.874,95.437,540.451,539.026,0.0
54055.0,STARLINK-5158,PAYLOAD,2023-05-21 13:25:01,15.0884397,0.000105,53.2159,257.3017,93.9842,266.1271,0.00010684,1.413e-05,0.0,0 STARLINK-5158,1 54055U 22136E   23141.55905052  .00001413  00000-0  10684-3 0  9996,2 54055  53.2159 257.3017 0001050  93.9842 266.1271 15.08843970 32861,6917.868,95.437,540.46,539.007,0.0
54055.0,STARLINK-5158,PAYLOAD,2023-05-22 10:05:04,15.08823339,0.0001957,53.2146,253.4329,75.1658,284.9551,-0.00010273,-1.922e-05,0.0,0 STARLINK-5158,1 54055U 22136E   23142.42019309 -.00001922  00000-0 -10273-3 0  9995,2 54055  53.2146 253.4329 0001957  75.1658 284.9551 15.08823339 32993,6917.931,95.439,541.15,538.442,0.0
54055.0,STARLINK-5158,PAYLOAD,2023-05-22 14:51:13,15.08833862,9.42e-05,53.2151,252.5453,86.7474,273.3625,-0.00013119,-2.375e-05,0.0,0 STARLINK-5158,1 54055U 22136E   23142.61890550 -.00002375  00000-0 -13119-3 0  9996,2 54055  53.2151 252.5453 0000942  86.7474 273.3625 15.08833862 33025,6917.899,95.438,540.416,539.112,0.0
